{
  "type": "FeatureCollection",
  "features": [
    {
      "type": "Feature",
      "properties": {
        "norad_id": 41890,
        "name": "CYGFM07",
        "group": "weather",
        "lat": -27.80700992656871,
        "lon": -171.34721581700686,
        "alt_km": 414.0712250336428,
        "timestamp": "2025-12-22T04:03:38.803827+00:00",
        "meta_object_name": "CYGFM07",
        "meta_object_id": "2016-078G",
        "meta_epoch": "2025-12-21T14:41:24.583776",
        "meta_mean_motion": 15.50351743,
        "meta_eccentricity": 0.0009938,
        "meta_inclination": 34.9486,
        "meta_ra_of_asc_node": 323.2662,
        "meta_arg_of_pericenter": 290.6458,
        "meta_mean_anomaly": 69.3199,
        "meta_ephemeris_type": 0,
        "meta_classification_type": "U",
        "meta_norad_cat_id": 41890,
        "meta_element_set_no": 999,
        "meta_rev_at_epoch": 50133,
        "meta_bstar": 0.0003294,
        "meta_mean_motion_dot": 0.00019319,
        "meta_mean_motion_ddot": 0,
        "tle_line1": "1 41890U 16078G   25355.61209009  .00019319  00000+0  32940-3 0  9994",
        "tle_line2": "2 41890  34.9486 323.2662 0009938 290.6458  69.3199 15.50351743501338"
      },
      "geometry": {
        "type": "Point",
        "coordinates": [
          -171.34721581700686,
          -27.80700992656871
        ]
      }
    },
    {
      "type": "Feature",
      "properties": {
        "norad_id": 41891,
        "name": "CYGFM03",
        "group": "weather",
        "lat": 31.505220067356266,
        "lon": 22.915079459225755,
        "alt_km": 415.2067319547141,
        "timestamp": "2025-12-22T04:03:38.803844+00:00",
        "meta_object_name": "CYGFM03",
        "meta_object_id": "2016-078H",
        "meta_epoch": "2025-12-21T07:41:09.975840",
        "meta_mean_motion": 15.50235912,
        "meta_eccentricity": 0.00096618,
        "meta_inclination": 34.9438,
        "meta_ra_of_asc_node": 327.1045,
        "meta_arg_of_pericenter": 275.8408,
        "meta_mean_anomaly": 84.1213,
        "meta_ephemeris_type": 0,
        "meta_classification_type": "U",
        "meta_norad_cat_id": 41891,
        "meta_element_set_no": 999,
        "meta_rev_at_epoch": 50126,
        "meta_bstar": 0.00032821183,
        "meta_mean_motion_dot": 0.00019168,
        "meta_mean_motion_ddot": 0,
        "tle_line1": "1 41891U 16078H   25355.32025435  .00019168  00000+0  32821-3 0  9992",
        "tle_line2": "2 41891  34.9438 327.1045 0009661 275.8408  84.1213 15.50235912501260"
      },
      "geometry": {
        "type": "Point",
        "coordinates": [
          22.915079459225755,
          31.505220067356266
        ]
      }
    },
    {
      "type": "Feature",
      "properties": {
        "norad_id": 43010,
        "name": "FENGYUN 3D",
        "group": "weather",
        "lat": -65.07745797547375,
        "lon": -17.46068481083773,
        "alt_km": 834.3486427899516,
        "timestamp": "2025-12-22T04:03:38.803861+00:00",
        "meta_object_name": "FENGYUN 3D",
        "meta_object_id": "2017-072A",
        "meta_epoch": "2025-12-21T21:36:30.748032",
        "meta_mean_motion": 14.19686629,
        "meta_eccentricity": 0.0001402,
        "meta_inclination": 98.99,
        "meta_ra_of_asc_node": 322.3475,
        "meta_arg_of_pericenter": 155.9137,
        "meta_mean_anomaly": 204.2104,
        "meta_ephemeris_type": 0,
        "meta_classification_type": "U",
        "meta_norad_cat_id": 43010,
        "meta_element_set_no": 999,
        "meta_rev_at_epoch": 41983,
        "meta_bstar": 0.00010814,
        "meta_mean_motion_dot": 1.83e-06,
        "meta_mean_motion_ddot": 0,
        "tle_line1": "1 43010U 17072A   25355.90035588  .00000183  00000+0  10814-3 0  9991",
        "tle_line2": "2 43010  98.9900 322.3475 0001402 155.9137 204.2104 14.19686629419839"
      },
      "geometry": {
        "type": "Point",
        "coordinates": [
          -17.46068481083773,
          -65.07745797547375
        ]
      }
    },
    {
      "type": "Feature",
      "properties": {
        "norad_id": 43013,
        "name": "NOAA 20 (JPSS-1)",
        "group": "weather",
        "lat": 76.83676082551902,
        "lon": -108.89033925811944,
        "alt_km": 818.1690233303925,
        "timestamp": "2025-12-22T04:03:38.803877+00:00",
        "meta_object_name": "NOAA 20 (JPSS-1)",
        "meta_object_id": "2017-073A",
        "meta_epoch": "2025-12-21T19:13:35.427936",
        "meta_mean_motion": 14.19527965,
        "meta_eccentricity": 0.0002117,
        "meta_inclination": 98.7612,
        "meta_ra_of_asc_node": 291.9992,
        "meta_arg_of_pericenter": 74.2593,
        "meta_mean_anomaly": 285.8816,
        "meta_ephemeris_type": 0,
        "meta_classification_type": "U",
        "meta_norad_cat_id": 43013,
        "meta_element_set_no": 999,
        "meta_rev_at_epoch": 41930,
        "meta_bstar": 5.5517e-05,
        "meta_mean_motion_dot": 7.3e-07,
        "meta_mean_motion_ddot": 0,
        "tle_line1": "1 43013U 17073A   25355.80110449  .00000073  00000+0  55517-4 0  9992",
        "tle_line2": "2 43013  98.7612 291.9992 0002117  74.2593 285.8816 14.19527965419302"
      },
      "geometry": {
        "type": "Point",
        "coordinates": [
          -108.89033925811944,
          76.83676082551902
        ]
      }
    },
    {
      "type": "Feature",
      "properties": {
        "norad_id": 43226,
        "name": "GOES 17",
        "group": "weather",
        "lat": -0.19377033728485962,
        "lon": 62.393279506034965,
        "alt_km": 35796.86136583019,
        "timestamp": "2025-12-22T04:03:38.803896+00:00",
        "meta_object_name": "GOES 17",
        "meta_object_id": "2018-022A",
        "meta_epoch": "2025-12-21T14:29:02.862240",
        "meta_mean_motion": 1.00270386,
        "meta_eccentricity": 0.000311,
        "meta_inclination": 0.4791,
        "meta_ra_of_asc_node": 89.125,
        "meta_arg_of_pericenter": 191.7261,
        "meta_mean_anomaly": 297.3218,
        "meta_ephemeris_type": 0,
        "meta_classification_type": "U",
        "meta_norad_cat_id": 43226,
        "meta_element_set_no": 999,
        "meta_rev_at_epoch": 2864,
        "meta_bstar": 0,
        "meta_mean_motion_dot": -1.6e-06,
        "meta_mean_motion_ddot": 0,
        "tle_line1": "1 43226U 18022A   25355.60350535 -.00000160  00000+0  00000+0 0  9993",
        "tle_line2": "2 43226   0.4791  89.1250 0003110 191.7261 297.3218  1.00270386 28646"
      },
      "geometry": {
        "type": "Point",
        "coordinates": [
          62.393279506034965,
          -0.19377033728485962
        ]
      }
    },
    {
      "type": "Feature",
      "properties": {
        "norad_id": 43491,
        "name": "FENGYUN 2H",
        "group": "weather",
        "lat": 1.2696017584730643,
        "lon": -128.7487213141316,
        "alt_km": 35776.503959557274,
        "timestamp": "2025-12-22T04:03:38.803931+00:00",
        "meta_object_name": "FENGYUN 2H",
        "meta_object_id": "2018-050A",
        "meta_epoch": "2025-12-21T20:25:22.168128",
        "meta_mean_motion": 1.0027106,
        "meta_eccentricity": 0.0002371,
        "meta_inclination": 2.5731,
        "meta_ra_of_asc_node": 81.2342,
        "meta_arg_of_pericenter": 166.0641,
        "meta_mean_anomaly": 229.057,
        "meta_ephemeris_type": 0,
        "meta_classification_type": "U",
        "meta_norad_cat_id": 43491,
        "meta_element_set_no": 999,
        "meta_rev_at_epoch": 2766,
        "meta_bstar": 0,
        "meta_mean_motion_dot": -1.09e-06,
        "meta_mean_motion_ddot": 0,
        "tle_line1": "1 43491U 18050A   25355.85095102 -.00000109  00000+0  00000+0 0  9994",
        "tle_line2": "2 43491   2.5731  81.2342 0002371 166.0641 229.0570  1.00271060 27661"
      },
      "geometry": {
        "type": "Point",
        "coordinates": [
          -128.7487213141316,
          1.2696017584730643
        ]
      }
    },
    {
      "type": "Feature",
      "properties": {
        "norad_id": 43689,
        "name": "METOP-C",
        "group": "weather",
        "lat": -70.53220555087404,
        "lon": 79.43549926262155,
        "alt_km": 827.627582484939,
        "timestamp": "2025-12-22T04:03:38.803955+00:00",
        "meta_object_name": "METOP-C",
        "meta_object_id": "2018-087A",
        "meta_epoch": "2025-12-21T18:15:55.622016",
        "meta_mean_motion": 14.21487662,
        "meta_eccentricity": 8.13e-05,
        "meta_inclination": 98.6916,
        "meta_ra_of_asc_node": 53.3919,
        "meta_arg_of_pericenter": 22.941,
        "meta_mean_anomaly": 337.1803,
        "meta_ephemeris_type": 0,
        "meta_classification_type": "U",
        "meta_norad_cat_id": 43689,
        "meta_element_set_no": 999,
        "meta_rev_at_epoch": 36962,
        "meta_bstar": 7.7905e-05,
        "meta_mean_motion_dot": 1.27e-06,
        "meta_mean_motion_ddot": 0,
        "tle_line1": "1 43689U 18087A   25355.76106044  .00000127  00000+0  77905-4 0  9993",
        "tle_line2": "2 43689  98.6916  53.3919 0000813  22.9410 337.1803 14.21487662369623"
      },
      "geometry": {
        "type": "Point",
        "coordinates": [
          79.43549926262155,
          -70.53220555087404
        ]
      }
    }
  ]
}